1P/Halley,e,162.2007,59.1691,112.0925,17.87153,0.0130455,0.96645078,173.3887,07/13.0/2022,2000,g  4.0,6.0
# From MPEC 2022-N37
2P/Encke,e,11.4772,334.2840,187.0436,2.219606,0.2980508,0.84831721,221.1948,07/13.0/2022,2000,g 11.5,6.0
# From MPEC 2022-L66
4P/Faye,e,8.0087,192.9260,207.0222,3.825160,0.1317437,0.57674935,40.4616,07/13.0/2022,2000,g  8.0,6.0
# From MPEC 2022-L66
6P/d'Arrest,e,19.5121,138.9338,178.0852,3.496993,0.1507169,0.61264165,44.9527,07/13.0/2022,2000,g  7.5,16.0
# From MPEC 2021-Y10
7P/Pons-Winnecke,e,22.3660,93.3437,172.5684,3.411606,0.1564105,0.63848740,64.4307,07/13.0/2022,2000,g 10.0,6.0
# From MPEC 2022-HC2
8P/Tuttle,e,54.9160,270.1982,207.4816,5.704839,0.0723334,0.82017492,23.0942,07/13.0/2022,2000,g  8.0,8.0
# From MPEC 2022-N37
9P/Tempel,e,10.4697,68.7121,179.3647,3.146424,0.1765950,0.50918711,22.9626,07/13.0/2022,2000,g  5.5,10.0
# From MPEC 2022-HC2
10P/Tempel,e,12.0384,117.8119,195.5111,3.061071,0.1840323,0.53836626,87.5598,07/13.0/2022,2000,g  5.0,10.0
# From MPEC 2022-K19
11P/Tempel-Swift-LINEAR,e,14.4244,238.8847,167.9727,3.283794,0.1656305,0.57731678,98.3190,07/13.0/2022,2000,g 17.0,4.0
# From MPEC 2022-M88
12P/Pons-Brooks,e,74.1690,255.8173,198.9807,17.16881,0.0138546,0.95447515,351.0191,07/13.0/2022,2000,g  5.0,6.0
# From  27, 604
13P/Olbers,e,44.6168,85.9430,64.3896,16.78128,0.0143373,0.92996747,349.6906,07/13.0/2022,2000,g  5.0,6.0
# From MPEC 2021-F20
14P/Wolf,e,27.9242,202.0419,159.0724,4.258179,0.1121678,0.35719222,188.6731,07/13.0/2022,2000,g  5.5,12.0
# From MPEC 2022-ED3
15P/Finlay,e,6.7980,13.7090,347.8508,3.507179,0.1500608,0.71706786,54.6983,07/13.0/2022,2000,g 12.0,4.0
# From MPEC 2022-C56
16P/Brooks,e,3.0117,138.8697,245.2193,3.657838,0.1408859,0.48642213,63.4888,07/13.0/2022,2000,g  7.5,10.0
# From MPEC 2022-ED3
17P/Holmes,e,19.0313,326.6235,24.5250,3.636821,0.1421089,0.42761339,72.2009,07/13.0/2022,2000,g 10.0,6.0
# From MPEC 2022-N37
19P/Borrelly,e,29.3041,74.2442,351.9215,3.605656,0.1439553,0.63771307,23.2012,07/13.0/2022,2000,g  4.5,10.0
# From MPEC 2021-F20
21P/Giacobini-Zinner,e,32.0555,195.3449,172.8780,3.495231,0.1508309,0.71121517,211.2439,07/13.0/2022,2000,g 11.4,4.0
# From MPEC 2022-N37
22P/Kopff,e,4.7419,120.8293,163.0326,3.441695,0.1543638,0.54894031,18.0379,07/13.0/2022,2000,g  3.0,10.4
# From MPC 14747
23P/Brorsen-Metcalf,e,19.1827,312.2272,128.9742,16.94544,0.0141294,0.97182546,0.0000,08/05.7899/1989,2000,g 10.0,6.0
# From MPC110085
24P/Schaumasse,e,11.5094,78.3981,58.4025,4.054575,0.1207219,0.70774346,205.9273,07/13.0/2022,2000,g  6.5,14.0
# From MPEC 2022-K19
26P/Grigg-Skjellerup,e,22.4319,211.5387,2.1565,3.014905,0.1882754,0.64033645,260.1236,07/13.0/2022,2000,g 12.0,16.0
# From MPC 78188
27P/Crommelin,e,29.3012,250.6434,195.8877,9.182129,0.0354233,0.91870674,141.9568,07/13.0/2022,2000,g 12.0,8.0
# From MPEC 2022-F14
28P/Neujmin,e,14.3120,346.3324,347.4408,6.978724,0.0534614,0.77371341,26.0960,07/13.0/2022,2000,g  8.5,6.0
# From MPEC 2022-K19
29P/Schwassmann-Wachmann,e,9.3655,312.3877,50.3513,6.044528,0.0663224,0.04483293,78.7762,07/13.0/2022,2000,g  4.0,4.0
# From MPEC 2022-K19
30P/Reinmuth,e,8.0954,117.7839,9.5175,3.721193,0.1373032,0.51802471,254.9111,07/13.0/2022,2000,g  9.5,6.0
# From MPEC 2021-F20
31P/Schwassmann-Wachmann,e,4.5478,114.1065,17.9775,4.236568,0.1130272,0.19217181,124.9231,07/13.0/2022,2000,g 13.1,4.0
# From MPEC 2022-K19
32P/ComasSola,e,9.8847,54.9150,54.8936,4.538077,0.1019521,0.55789094,293.9949,07/13.0/2022,2000,g  6.5,8.0
# From MPEC 2013-O31
33P/Daniel,e,22.2954,66.3063,20.4842,4.087184,0.1192801,0.45167412,258.2676,07/13.0/2022,2000,g 10.0,12.0
# From  15, 452
35P/Herschel-Rigollet,e,65.289,356.742,28.956,28.5516,0.006460,0.9742173,0.000,01/25.1383/2092,2000,g  9.0,4.0
# From MPEC 2022-ED3
36P/Whipple,e,9.9527,181.8414,200.9698,4.135858,0.1171806,0.26910400,90.3953,07/13.0/2022,2000,g  8.5,6.0
# From MPEC 2021-F20
37P/Forbes,e,8.9544,314.5660,330.1174,3.461169,0.1530629,0.53334402,234.3316,07/13.0/2022,2000,g 13.8,4.0
# From MPEC 2018-S50
38P/Stephan-Oterma,e,18.3788,77.9265,359.4974,11.23558,0.0261704,0.85924990,35.0567,07/13.0/2022,2000,g  3.5,12.0
# From MPEC 2022-A21
39P/Oterma,e,1.5483,298.4836,98.3882,7.331962,0.0496448,0.22050973,343.3288,07/13.0/2022,2000,g  7.0,6.0
# From MPC100283
40P/Vaisala,e,11.4685,133.7679,47.3797,4.954164,0.0893817,0.62994185,250.7252,07/13.0/2022,2000,g  5.5,12.0
# From MPC105240
41P/Tuttle-Giacobini-Kresak,e,9.2207,140.9892,62.2142,3.088351,0.1815993,0.65996890,348.6659,07/13.0/2022,2000,g 10.0,16.0
# From MPC 94283
42P/Neujmin,e,3.9915,150.1746,147.2363,4.873400,0.0916128,0.58492896,242.6308,07/13.0/2022,2000,g 13.0,6.0
# From MPEC 2022-C56
43P/Wolf-Harrington,e,9.3328,244.0620,224.0976,4.318893,0.1098109,0.43526396,236.9560,07/13.0/2022,2000,g  8.0,6.0
# From MPEC 2022-N37
44P/Reinmuth,e,5.8956,286.4527,58.0779,3.692156,0.1389261,0.42780922,11.2237,07/13.0/2022,2000,g  8.3,6.0
# From MPEC 2022-M21
45P/Honda-Mrkos-Pajdusakova,e,4.3227,87.7026,327.9079,3.054783,0.1846008,0.81759527,14.2232,07/13.0/2022,2000,g 13.5,8.0
# From MPEC 2021-O56
46P/Wirtanen,e,11.7473,82.1584,356.3272,3.091801,0.1812954,0.65854681,237.3254,07/13.0/2022,2000,g 14.0,6.0
# From MPEC 2022-HC2
47P/Ashbrook-Jackson,e,13.0414,356.9216,357.7052,4.122752,0.1177398,0.31867619,218.4797,07/13.0/2022,2000,g  1.0,11.2
# From MPEC 2021-F20
48P/Johnson,e,12.2026,110.1086,216.7129,3.501016,0.1504572,0.42731932,215.0962,07/13.0/2022,2000,g 12.4,4.0
# From MPEC 2021-F20
49P/Arend-Rigaux,e,19.0483,118.7941,332.9211,3.569633,0.1461399,0.59838452,213.4013,07/13.0/2022,2000,g 13.4,4.0
# From MPEC 2015-S97
50P/Arend,e,19.1006,355.1787,49.3255,4.087958,0.1192462,0.52944606,280.1125,07/13.0/2022,2000,g  9.5,6.0
# From NK 3013
51P-D/Harrington,e,5.4266,83.6594,269.3016,3.708011,0.1380360,0.54359106,348.8508,07/13.0/2022,2000,g 16.0,8.0
# From MPEC 2022-L66
52P/Harrington-Abell,e,10.2314,336.8368,139.5767,3.864429,0.1297407,0.54017329,36.4348,07/13.0/2022,2000,g 13.5,6.0
# From MPC100283
53P/Van Biesbroeck,e,6.6095,148.8116,134.5098,5.430416,0.0778851,0.55105852,176.4148,07/13.0/2022,2000,g  7.7,4.8
# From MPC 89011
54P/de Vico-Swift-NEAT,e,6.0647,358.8173,1.8405,3.789713,0.1335964,0.42639744,255.3098,07/13.0/2022,2000,g  9.0,4.0
# From MPC 31070
55P/Tempel-Tuttle,e,162.4807,235.4145,172.4788,10.35717,0.0295694,0.90560456,264.4003,07/13.0/2022,2000,g  9.0,4.0
# From MPC101100
56P/Slaughter-Burnham,e,8.1610,345.9936,44.0016,5.067137,0.0864092,0.50824212,188.5821,07/13.0/2022,2000,g  8.5,6.0
# From MPEC 2022-M88
57P/duToit-Neujmin-Delporte,e,2.8521,188.7703,115.2033,3.445753,0.1540912,0.50098377,41.4020,07/13.0/2022,2000,g 12.5,6.0
# From MPEC 2021-O56
58P/Jackson-Neujmin,e,13.1088,159.0745,200.5169,4.087142,0.1192819,0.66281896,92.5950,07/13.0/2022,2000,g 15.5,6.0
# From MPEC 2021-F20
59P/Kearns-Kwee,e,9.3423,312.8128,127.5030,4.484511,0.1037843,0.47573444,144.7888,07/13.0/2022,2000,g  7.0,6.0
# From MPEC 2021-F20
60P/Tsuchinshan,e,3.5820,267.4730,216.9862,3.525386,0.1488998,0.53372659,195.5778,07/13.0/2022,2000,g 11.5,6.0
# From MPEC 2022-N37
61P/Shajn-Schaldach,e,5.9997,162.9667,221.6877,3.692302,0.1389179,0.42428496,345.7071,07/13.0/2022,2000,g  6.0,10.0
# From MPC109147
62P/Tsuchinshan,e,4.7362,68.7996,47.3389,3.365514,0.1596346,0.62572480,275.4262,07/13.0/2022,2000,g  8.0,10.0
# From MPC 84320
63P/Wild,e,19.7298,358.0191,169.0246,5.609792,0.0741795,0.64924819,251.7908,07/13.0/2022,2000,g 10.5,6.0
# From MPEC 2021-F20
64P/Swift-Gehrels,e,8.9490,299.9490,97.1087,4.452804,0.1048947,0.68847531,141.1903,07/13.0/2022,2000,g 13.4,4.0
# From MPEC 2022-K19
65P/Gunn,e,9.1764,61.9969,213.9059,3.887909,0.1285671,0.24876585,222.4430,07/13.0/2022,2000,g  5.0,6.0
# From MPEC 2021-F20
66P/duToit,e,18.6402,21.7867,257.4654,6.069542,0.0659129,0.78618844,99.9568,07/13.0/2022,2000,g 15.0,4.0
# From MPEC 2022-M21
67P/Churyumov-Gerasimenko,e,3.8717,36.3304,22.1431,3.456546,0.1533701,0.64976845,38.7903,07/13.0/2022,2000,g 11.0,4.0
# From MPEC 2022-H04
68P/Klemola,e,11.1116,175.0451,153.2176,4.957399,0.0892942,0.63745856,87.2276,07/13.0/2022,2000,g 12.7,4.0
# From MPC114607
69P/Taylor,e,22.0402,104.8123,343.3961,3.885380,0.1286927,0.41355076,156.0747,07/13.0/2022,2000,g  9.5,12.0
# From MPEC 2022-N37
70P/Kojima,e,6.5977,119.2648,1.8140,3.677991,0.1397295,0.45383301,35.2004,07/13.0/2022,2000,g 11.0,6.0
# From MPEC 2022-M88
71P/Clark,e,9.4377,59.3953,209.0668,3.139033,0.1772190,0.49387057,325.6558,07/13.0/2022,2000,g  9.8,6.0
# From MPC 89011
72P/Denning-Fujikawa,e,10.9481,26.6998,346.7170,4.308651,0.1102027,0.81864804,322.7640,07/13.0/2022,2000,g 17.5,10.0
# From MPEC 2022-N37
73P/Schwassmann-Wachmann,e,11.2278,69.6100,199.4891,3.092129,0.1812666,0.68534032,352.0618,07/13.0/2022,2000,g 11.5,6.0
# From MPC106348
73P-T/Schwassmann-Wachmann,e,11.2297,69.6130,199.4686,3.093606,0.1811368,0.68553985,351.8119,07/13.0/2022,2000,g 11.5,6.0
# From MPEC 2022-L66
74P/Smirnova-Chernykh,e,6.1142,58.2134,133.2855,4.522049,0.1024946,0.10951773,153.9593,07/13.0/2022,2000,g  5.0,6.0
# From MPEC 2022-K19
76P/West-Kohoutek-Ikemura,e,30.4730,84.1059,359.9379,3.471169,0.1524019,0.53847822,151.0062,07/13.0/2022,2000,g  8.0,12.0
# From MPEC 2022-M21
77P/Longmore,e,24.3186,14.7689,196.7654,3.623524,0.1428918,0.35187397,322.2449,07/13.0/2022,2000,g  7.0,8.0
# From MPEC 2021-O56
78P/Gehrels,e,6.2555,210.5155,192.6337,3.737567,0.1364020,0.46266076,163.1944,07/13.0/2022,2000,g  5.5,8.0
# From MPC 94675
79P/du Toit-Hartley,e,3.1482,280.5264,281.7795,2.943372,0.1951804,0.61897918,273.2526,07/13.0/2022,2000,g 16.0,4.0
# From MPEC 2014-P41
80P/Peters-Hartley,e,29.9223,259.7996,339.2474,4.024355,0.1220842,0.59862316,341.8257,07/13.0/2022,2000,g  9.0,4.0
# From MPEC 2022-H30
81P/Wild,e,3.2366,136.0987,41.6408,3.453522,0.1535715,0.53717235,336.0980,07/13.0/2022,2000,g  7.0,6.0
# From MPC133426
82P/Gehrels,e,1.1291,239.3175,226.4364,4.133870,0.1172651,0.12186198,173.6417,07/13.0/2022,2000,g 15.0,4.0
# From MPEC 2020-FB5
